OBJECT_NAME,OBJECT_ID,EPOCH,MEAN_MOTION,ECCENTRICITY,INCLINATION,RA_OF_ASC_NODE,ARG_OF_PERICENTER,MEAN_ANOMALY,EPHEMERIS_TYPE,CLASSIFICATION_TYPE,NORAD_CAT_ID,ELEMENT_SET_NO,REV_AT_EPOCH,BSTAR,MEAN_MOTION_DOT,MEAN_MOTION_DDOT
LEMUR-2-STARLIGHT,2025-276DY,2026-07-08T03:04:37.507296,14.99296810,.0014761,97.5225,259.0509,67.8115,292.4673,0,U,66783,999,3333,.30772E-3,.3708E-4,0
LEMUR-2-TARTIFLETTE,2025-276DZ,2026-07-08T03:02:13.837056,14.99286287,.0013767,97.5227,259.0571,75.6859,284.5892,0,U,66784,999,3333,.25443E-3,.3054E-4,0
LEMUR-2-VUKASIN,2025-276EA,2026-07-08T02:27:45.624096,15.00502393,.0004164,97.5244,259.3796,75.1973,284.9712,0,U,66785,999,3328,.22703E-3,.2803E-4,0
LEMUR-2-HOTSPUR-TOM,2025-276EB,2026-07-07T17:16:51.227040,14.99191668,.0013963,97.5216,258.6413,68.0373,292.2333,0,U,66786,999,3320,.31113E-3,.3739E-4,0
LEMUR-2-MYRA,2025-276EC,2026-07-08T03:13:57.293760,15.00534495,.0018509,97.5214,259.3310,75.7709,284.5570,0,U,66787,999,3335,.28511E-3,.355E-4,0
LEMUR-2 FIKRETDENGIZ,2026-004A,2026-07-07T23:23:50.644608,14.88482083,.0010478,97.8025,187.2153,76.1761,284.0621,0,U,67363,999,2637,.20456E-3,.1847E-4,0
TWILIGHT-1 OBJECT B,2026-004B,2026-07-07T22:35:30.028128,14.87777199,.0010121,97.8066,187.1873,66.8225,293.4057,0,U,67364,999,2637,.16256E-3,.143E-4,0
LEMUR-2-MARIO-SOUSA,2026-004C,2026-07-07T22:56:18.085632,14.88689079,.0010172,97.7999,187.1917,77.0518,283.1834,0,U,67365,999,2638,.29935E-3,.2742E-4,0
LEMUR-2-SONNENBLUME,2026-004E,2026-07-07T22:58:32.511072,14.88429463,.000968,97.7993,187.1693,78.2167,282.0136,0,U,67367,999,2638,.20769E-3,.1873E-4,0
LEMUR-2-WOBLER,2026-004F,2026-07-07T22:44:47.997600,14.88664984,.0009899,97.8046,187.3030,70.3268,289.9016,0,U,67368,999,2638,.28561E-3,.2612E-4,0
LEMUR-2-GRAM-E-SUE,2026-004H,2026-07-07T22:32:44.744928,14.88567504,.0008837,97.7979,187.1679,80.8974,279.3242,0,U,67370,999,2638,.20232E-3,.1829E-4,0
LEMUR-2-KATIE,2026-004AA,2026-07-07T23:19:01.678944,14.90208815,.0004067,97.8045,187.7268,49.7547,310.4026,0,U,67387,999,2640,.22621E-3,.2137E-4,0
LEMUR-2-HCS-BAZUS,2026-004AB,2026-07-07T23:16:47.543808,14.90236880,.0003505,97.8032,187.7046,50.4132,309.7395,0,U,67388,999,2640,.14852E-3,.1385E-4,0
