LEMUR-2-STARLIGHT       
1 66783U 25276DY  26189.12821189  .00003708  00000+0  30772-3 0  9999
2 66783  97.5225 259.0509 0014761  67.8115 292.4673 14.99296810 33333
LEMUR-2-TARTIFLETTE     
1 66784U 25276DZ  26189.12654904  .00003054  00000+0  25443-3 0  9992
2 66784  97.5227 259.0571 0013767  75.6859 284.5892 14.99286287 33334
LEMUR-2-VUKASIN         
1 66785U 25276EA  26189.10261139  .00002803  00000+0  22703-3 0  9992
2 66785  97.5244 259.3796 0004164  75.1973 284.9712 15.00502393 33280
LEMUR-2-HOTSPUR-TOM     
1 66786U 25276EB  26188.72003735  .00003739  00000+0  31113-3 0  9990
2 66786  97.5216 258.6413 0013963  68.0373 292.2333 14.99191668 33209
LEMUR-2-MYRA            
1 66787U 25276EC  26189.13469090  .00003550  00000+0  28511-3 0  9996
2 66787  97.5214 259.3310 0018509  75.7709 284.5570 15.00534495 33356
LEMUR-2 FIKRETDENGIZ    
1 67363U 26004A   26188.97489172  .00001847  00000+0  20456-3 0  9998
2 67363  97.8025 187.2153 0010478  76.1761 284.0621 14.88482083 26370
TWILIGHT-1 OBJECT B     
1 67364U 26004B   26188.94131977  .00001430  00000+0  16256-3 0  9994
2 67364  97.8066 187.1873 0010121  66.8225 293.4057 14.87777199 26371
LEMUR-2-MARIO-SOUSA     
1 67365U 26004C   26188.95576488  .00002742  00000+0  29935-3 0  9991
2 67365  97.7999 187.1917 0010172  77.0518 283.1834 14.88689079 26380
LEMUR-2-SONNENBLUME     
1 67367U 26004E   26188.95732073  .00001873  00000+0  20769-3 0  9997
2 67367  97.7993 187.1693 0009680  78.2167 282.0136 14.88429463 26384
LEMUR-2-WOBLER          
1 67368U 26004F   26188.94777775  .00002612  00000+0  28561-3 0  9995
2 67368  97.8046 187.3030 0009899  70.3268 289.9016 14.88664984 26381
LEMUR-2-GRAM-E-SUE      
1 67370U 26004H   26188.93940677  .00001829  00000+0  20232-3 0  9996
2 67370  97.7979 187.1679 0008837  80.8974 279.3242 14.88567504 26380
LEMUR-2-KATIE           
1 67387U 26004AA  26188.97154721  .00002137  00000+0  22621-3 0  9992
2 67387  97.8045 187.7268 0004067  49.7547 310.4026 14.90208815 26404
LEMUR-2-HCS-BAZUS       
1 67388U 26004AB  26188.96999472  .00001385  00000+0  14852-3 0  9993
2 67388  97.8032 187.7046 0003505  50.4132 309.7395 14.90236880 26403
